0 COSMOS 2251 DEB
1 33995U 93036GE  13281.04961703  .00000912  00000-0  41539-3 0  8126
2 33995 074.0694 221.6932 0075967 258.6911 204.7114 14.21570955241209
0 COSMOS 2251 DEB
1 33995U 93036GE  13283.51622833  .00000785  00000-0  35943-3 0  8139
2 33995 074.0696 217.2789 0075868 253.7254 227.9382 14.21580216241551
0 COSMOS 2251 DEB
1 33995U 93036GE  13286.18904942  .00000958  00000-0  43605-3 0  8146
2 33995 074.0697 212.4955 0075665 248.3050 226.5926 14.21582910241937
0 COSMOS 2251 DEB
1 33995U 93036GE  13288.23008347  .00001481  00000-0  66765-3 0  8153
2 33995 074.0697 208.8428 0075555 244.1676 231.9833 14.21587445242225
0 COSMOS 2251 DEB
1 33995U 93036GE  13290.48180678  .00001102  00000-0  49964-3 0  8164
2 33995 074.0694 204.8134 0075479 239.6026 235.6553 14.21595127242546
0 COSMOS 2251 DEB
1 33995U 93036GE  13292.79230284  .00001031  00000-0  46831-3 0  8171
2 33995 074.0691 200.6791 0075373 234.9103 180.1758 14.21600520242874
0 COSMOS 2251 DEB
1 33995U 93036GE  13294.83511478  .00001093  00000-0  49575-3 0  8182
2 33995 074.0690 197.0232 0075224 230.7487 194.8146 14.21604761243163
